STARLINK-5993           
1 56449U 23064B   26068.63921583  .00000534  00000+0  52548-4 0  9991
2 56449  70.0005 144.7824 0003151 270.3368  89.7430 14.98327790155238
LEMUR-2-BALTO           
1 63395U 25052BH  26068.69493058  .00007621  00000+0  63456-3 0  9998
2 63395  97.6978 323.5166 0002279 359.2852   0.8367 14.98934076 53850
